NORAD_CAT_ID,OBJECT_NAME,OBJECT_TYPE,EPOCH,MEAN_MOTION,ECCENTRICITY,INCLINATION,RA_OF_ASC_NODE,ARG_OF_PERICENTER,MEAN_ANOMALY,BSTAR,MEAN_MOTION_DOT,MEAN_MOTION_DDOT,TLE_LINE0,TLE_LINE1,TLE_LINE2,SEMIMAJOR_AXIS,PERIOD,APOGEE,PERIGEE,DECAYED
53789.0,STARLINK-4666,PAYLOAD,2023-01-19 10:14:58,15.08858107,0.0001848,53.2177,15.1709,77.8213,282.2986,0.00042454,6.478e-05,0.0,0 STARLINK-4666,1 53789U 22111S   23019.42706899  .00006478  00000-0  42454-3 0  9996,2 53789  53.2177  15.1709 0001848  77.8213 282.2986 15.08858107 19999,6917.825,95.436,540.9680000000001,538.4119999999999,0.0
53789.0,STARLINK-4666,PAYLOAD,2023-01-19 22:58:04,15.088302800000005,0.0001582,53.2188,12.7939,106.5863,253.5303,-0.00016068,-2.844e-05,0.0,0 STARLINK-4666,1 53789U 22111S   23019.95700203 -.00002844  00000-0 -16068-3 0  9994,2 53789  53.2188  12.7939 0001582 106.5863 253.5303 15.08830280 20072,6917.91,95.438,540.87,538.681,0.0
53789.0,STARLINK-4666,PAYLOAD,2023-01-20 08:30:23,15.08842692,0.0001612,53.2183,11.0096,118.8068,241.3086,-5.4928e-05,-1.162e-05,0.0,0 STARLINK-4666,1 53789U 22111S   23020.35443568 -.00001162  00000-0 -54928-4 0  9998,2 53789  53.2183  11.0096 0001612 118.8068 241.3086 15.08842692 20130,6917.871999999999,95.437,540.852,538.622,0.0
53789.0,STARLINK-4666,PAYLOAD,2023-01-21 16:18:06,15.08844809,0.0001279,53.219,5.062,100.02,260.0936,0.0014579,0.00022994,0.0,0 STARLINK-4666,1 53789U 22111S   23021.67924615  .00022994  00000-0  14579-2 0  9991,2 53789  53.2190   5.0620 0001279 100.0200 260.0936 15.08844809 20330,6917.866,95.437,540.615,538.846,0.0
53789.0,STARLINK-4666,PAYLOAD,2023-01-22 01:50:25,15.08850469,0.0001372,53.2192,3.277,105.3044,254.8099,0.0012818,0.00020176,0.0,0 STARLINK-4666,1 53789U 22111S   23022.07668580  .00020176  00000-0  12818-2 0  9996,2 53789  53.2192   3.2770 0001372 105.3044 254.8099 15.08850469 20392,6917.848000000001,95.437,540.663,538.764,0.0
53789.0,STARLINK-4666,PAYLOAD,2023-01-22 17:44:16,15.0885362,0.0001636,53.2182,0.3043,104.1513,255.9661,0.00061831,9.57e-05,0.0,0 STARLINK-4666,1 53789U 22111S   23022.73908276  .00009570  00000-0  61831-3 0  9993,2 53789  53.2182   0.3043 0001636 104.1513 255.9661 15.08853620 20493,6917.839,95.437,540.836,538.572,0.0
53789.0,STARLINK-4666,PAYLOAD,2023-01-23 04:51:58,15.08854565,0.0001344,53.2189,358.2237,86.302,273.8126,0.00072689,0.00011304,0.0,0 STARLINK-4666,1 53789U 22111S   23023.20276335  .00011304  00000-0  72689-3 0  9991,2 53789  53.2189 358.2237 0001344  86.3020 273.8126 15.08854565 20562,6917.835999999999,95.437,540.631,538.771,0.0
53789.0,STARLINK-4666,PAYLOAD,2023-01-24 04:42:46,15.08852707,0.0001493,53.2197,353.76,87.1577,272.9586,0.001099,0.00017252,0.0,0 STARLINK-4666,1 53789U 22111S   23024.19636756  .00017252  00000-0  10990-2 0  9991,2 53789  53.2197 353.7600 0001493  87.1577 272.9586 15.08852707 20719,6917.842,95.437,540.739,538.674,0.0
53789.0,STARLINK-4666,PAYLOAD,2023-01-25 04:33:33,15.08852642,0.0001069,53.2193,349.3031,92.9872,267.1243,0.001604,0.00025341,0.0,0 STARLINK-4666,1 53789U 22111S   23025.18996899  .00025341  00000-0  16040-2 0  9998,2 53789  53.2193 349.3031 0001069  92.9872 267.1243 15.08852642 20865,6917.842,95.437,540.446,538.967,0.0
53789.0,STARLINK-4666,PAYLOAD,2023-01-25 14:05:52,15.08846382,0.0001034,53.2193,347.5215,96.2423,263.8687,0.0008112999999999,0.0001264999999999,0.0,0 STARLINK-4666,1 53789U 22111S   23025.58740900  .00012650  00000-0  81130-3 0  9994,2 53789  53.2193 347.5215 0001034  96.2423 263.8687 15.08846382 20926,6917.861,95.437,540.441,539.011,0.0
53789.0,STARLINK-4666,PAYLOAD,2023-01-26 02:48:57,15.08842574,0.0001115999999999,53.2184,345.1401,92.5518,267.5602,0.00087994,0.00013745,0.0,0 STARLINK-4666,1 53789U 22111S   23026.11733138  .00013745  00000-0  87994-3 0  9999,2 53789  53.2184 345.1401 0001116  92.5518 267.5602 15.08842574 21009,6917.8730000000005,95.437,540.51,538.965,0.0
53789.0,STARLINK-4666,PAYLOAD,2023-01-26 07:35:06,15.08859077,0.0001052,53.2181,344.2493,83.0134,277.0978,0.0019329999999999,0.00030626,0.0,0 STARLINK-4666,1 53789U 22111S   23026.31604923  .00030626  00000-0  19330-2 0  9995,2 53789  53.2181 344.2493 0001052  83.0134 277.0978 15.08859077 21036,6917.821999999999,95.436,540.415,538.9590000000001,0.0
53789.0,STARLINK-4666,PAYLOAD,2023-01-27 02:39:44,15.08853317,0.0001202,53.2184,340.6786,92.3657,267.7473,0.001549,0.00024459,0.0,0 STARLINK-4666,1 53789U 22111S   23027.11093246  .00024459  00000-0  15490-2 0  9994,2 53789  53.2184 340.6786 0001202  92.3657 267.7473 15.08853317 21154,6917.84,95.437,540.536,538.873,0.0
53789.0,STARLINK-4666,PAYLOAD,2023-01-27 05:50:30,15.08853116,0.0001137,53.2174,340.0877,81.4667,278.6454,0.0011914,0.00018731,0.0,0 STARLINK-4666,1 53789U 22111S   23027.24341141  .00018731  00000-0  11914-2 0  9991,2 53789  53.2174 340.0877 0001137  81.4667 278.6454 15.08853116 21972,6917.84,95.437,540.492,538.919,0.0
53789.0,STARLINK-4666,PAYLOAD,2023-01-28 02:30:33,15.08834258,0.0001200999999999,53.2171,336.2197,90.1158,269.9972,0.0013279,0.00020905,0.0,0 STARLINK-4666,1 53789U 22111S   23028.10455061  .00020905  00000-0  13279-2 0  9996,2 53789  53.2171 336.2197 0001201  90.1158 269.9972 15.08834258 21306,6917.898,95.438,540.594,538.932,0.0
53789.0,STARLINK-4666,PAYLOAD,2023-01-28 04:05:56,15.08843406,0.0001208,53.2161,335.9229,105.3757,254.7369,0.0013852,0.00021828,0.0,0 STARLINK-4666,1 53789U 22111S   23028.17078756  .00021828  00000-0  13852-2 0  9997,2 53789  53.2161 335.9229 0001208 105.3757 254.7369 15.08843406 22115,6917.87,95.437,540.571,538.899,0.0
53789.0,STARLINK-4666,PAYLOAD,2023-01-28 19:59:46,15.0886917,0.0001242,53.2163,332.9494,87.6107,272.5027,0.0011277,0.00017719,0.0,0 STARLINK-4666,1 53789U 22111S   23028.83318209  .00017719  00000-0  11277-2 0  9993,2 53789  53.2163 332.9494 0001242  87.6107 272.5027 15.08869170 22213,6917.791,95.436,540.515,538.797,0.0
53789.0,STARLINK-4666,PAYLOAD,2023-01-29 19:50:33,15.08860726,0.0001399,53.2168,328.4887,81.5971,278.518,0.00041071,6.258e-05,0.0,0 STARLINK-4666,1 53789U 22111S   23029.82677298  .00006258  00000-0  41071-3 0  9991,2 53789  53.2168 328.4887 0001399  81.5971 278.5180 15.08860726 22369,6917.817,95.436,540.65,538.714,0.0
53789.0,STARLINK-4666,PAYLOAD,2023-01-30 05:22:52,15.08847633,0.0001414,53.2177,326.7029,71.1985,288.916,2.0551e-05,3.9e-07,0.0,0 STARLINK-4666,1 53789U 22111S   23030.22421455  .00000039  00000-0  20551-4 0  9991,2 53789  53.2177 326.7029 0001414  71.1985 288.9160 15.08847633 21629,6917.857,95.437,540.7,538.744,0.0
53789.0,STARLINK-4666,PAYLOAD,2023-01-30 11:44:24,15.08843464,0.0001409,53.2178,325.5134,72.2749,287.8397,8.6751e-06,-1.5e-06,0.0,0 STARLINK-4666,1 53789U 22111S   23030.48917504 -.00000150  00000-0  86751-5 0  9994,2 53789  53.2178 325.5134 0001409  72.2749 287.8397 15.08843464 22469,6917.87,95.437,540.71,538.76,0.0
53789.0,STARLINK-4666,PAYLOAD,2023-01-31 05:13:38,15.08850956,0.0001423,53.2181,322.2421,75.1391,284.9759,0.00013054,1.791e-05,0.0,0 STARLINK-4666,1 53789U 22111S   23031.21781153  .00001791  00000-0  13054-3 0  9990,2 53789  53.2181 322.2421 0001423  75.1391 284.9759 15.08850956 22573,6917.847,95.437,540.696,538.727,0.0
53789.0,STARLINK-4666,PAYLOAD,2023-02-01 01:53:37,15.08885877,0.0001401,53.2176,318.3788,69.8069,290.3074,0.00080637,0.00012585,0.0,0 STARLINK-4666,1 53789U 22111S   23032.07890877  .00012585  00000-0  80637-3 0  9993,2 53789  53.2176 318.3788 0001401  69.8069 290.3074 15.08885877 21904,6917.74,95.435,540.574,538.636,0.0
53789.0,STARLINK-4666,PAYLOAD,2023-02-01 05:04:23,15.0890087,0.0001478,53.2179,317.7829,71.9224,288.1929,0.0011445,0.00018004,0.0,0 STARLINK-4666,1 53789U 22111S   23032.21138306  .00018004  00000-0  11445-2 0  9993,2 53789  53.2179 317.7829 0001478  71.9224 288.1929 15.08900870 21924,6917.694,95.434,540.582,538.537,0.0
53789.0,STARLINK-4666,PAYLOAD,2023-02-01 17:47:28,15.08848934,0.00014,53.2175,315.4053,79.2633,280.8516,-0.0007077,-0.00011536,0.0,0 STARLINK-4666,1 53789U 22111S   23032.74130548 -.00011536  00000-0 -70770-3 0  9993,2 53789  53.2175 315.4053 0001400  79.2633 280.8516 15.08848934 22007,6917.853,95.437,540.687,538.75,0.0
53789.0,STARLINK-4666,PAYLOAD,2023-02-02 01:44:22,15.08949554,0.000211,53.2177,313.9182,101.2265,258.8965,0.0056812,0.00091581,0.0,0 STARLINK-4666,1 53789U 22111S   23033.07248191  .00091581  00000-0  56812-2 0  9990,2 53789  53.2177 313.9182 0002110 101.2265 258.8965 15.08949554 22059,6917.546,95.431,540.87,537.951,0.0
53789.0,STARLINK-4666,PAYLOAD,2023-02-03 04:45:00,15.10047147,0.0001591,53.2198,308.8592,95.5015,264.616,0.010249,0.00172465,0.0,0 STARLINK-4666,1 53789U 22111S   23034.19792346  .00172465  00000-0  10249-1 0  9994,2 53789  53.2198 308.8592 0001591  95.5015 264.6160 15.10047147 22221,6914.193,95.361,537.158,534.958,0.0
53789.0,STARLINK-4666,PAYLOAD,2023-02-03 14:00:01,15.10454548,0.0001647,53.2169,307.1247,95.5842,201.3126,0.0019137,0.00031689,0.0,0 STARLINK-4666,1 53789U 22111S   23034.58334491  .00031689  00000-0  19137-2 0  9998,2 53789  53.2169 307.1247 0001647  95.5842 201.3126 15.10454548 22270,6912.95,95.336,535.953,533.676,0.0
53789.0,STARLINK-4666,PAYLOAD,2023-02-04 00:00:00,15.10506565,0.00017,53.2166,305.2511,85.1977,318.6412,-0.0042797,-0.00070899,0.0,0 STARLINK-4666,1 53789U 22111S   23035.00001157 -.00070899  00000-0 -42797-2 0  9992,2 53789  53.2166 305.2511 0001700  85.1977 318.6412 15.10506565  1302,6912.791,95.332,535.831,533.481,0.0
53789.0,STARLINK-4666,PAYLOAD,2023-02-04 08:00:01,15.10459853,0.000167,53.2162,303.7507,78.9122,338.5036,0.00040328,6.424e-05,0.0,0 STARLINK-4666,1 53789U 22111S   23035.33334491  .00006424  00000-0  40328-3 0  9998,2 53789  53.2162 303.7507 0001670  78.9122 338.5036 15.10459853 22396,6912.934,95.335,535.953,533.644,0.0
